{
  "type": "Feature",
  "featureId": 26,
  "bbox": [
    2590722.7,
    1105634.6,
    2591695.3,
    1106845.2
  ],
  "layerBodId": "ch.bafu.vec25-seen",
  "layerName": "Seen",
  "id": 26,
  "geometry": {
    "type": "MultiPolygon",
    "coordinates": [
      [
        [
          [
            2590800.1,
            1106689.9
          ],
          [
            2590800.3,
            1106692.4
          ],
          [
            2590849.5,
            1106694.3
          ],
          [
            2591131.1,
            1106845.2
          ],
          [
            2591134.6,
            1106834.7
          ],
          [
            2591139.6,
            1106827.5
          ],
          [
            2591152.3,
            1106819.4
          ],
          [
            2591186.9,
            1106808.1
          ],
          [
            2591202.2,
            1106806.4
          ],
          [
            2591216.0,
            1106802.5
          ],
          [
            2591235.8,
            1106788.9
          ],
          [
            2591239.0,
            1106772.0
          ],
          [
            2591241.5,
            1106766.7
          ],
          [
            2591257.2,
            1106743.8
          ],
          [
            2591260.1,
            1106727.9
          ],
          [
            2591260.0,
            1106710.2
          ],
          [
            2591248.6,
            1106671.5
          ],
          [
            2591243.8,
            1106664.7
          ],
          [
            2591226.0,
            1106655.4
          ],
          [
            2591219.0,
            1106645.7
          ],
          [
            2591214.1,
            1106634.2
          ],
          [
            2591212.7,
            1106617.1
          ],
          [
            2591209.4,
            1106605.5
          ],
          [
            2591210.4,
            1106595.0
          ],
          [
            2591222.0,
            1106586.4
          ],
          [
            2591228.8,
            1106574.0
          ],
          [
            2591232.9,
            1106545.4
          ],
          [
            2591245.8,
            1106499.4
          ],
          [
            2591261.1,
            1106422.3
          ],
          [
            2591266.7,
            1106401.9
          ],
          [
            2591268.5,
            1106383.2
          ],
          [
            2591257.0,
            1106305.9
          ],
          [
            2591254.3,
            1106296.4
          ],
          [
            2591246.7,
            1106281.4
          ],
          [
            2591236.6,
            1106272.9
          ],
          [
            2591236.6,
            1106267.8
          ],
          [
            2591238.6,
            1106257.3
          ],
          [
            2591247.9,
            1106245.7
          ],
          [
            2591264.6,
            1106219.4
          ],
          [
            2591273.0,
            1106206.4
          ],
          [
            2591274.3,
            1106195.7
          ],
          [
            2591288.9,
            1106172.2
          ],
          [
            2591292.8,
            1106161.6
          ],
          [
            2591292.8,
            1106141.5
          ],
          [
            2591291.0,
            1106133.9
          ],
          [
            2591284.0,
            1106123.1
          ],
          [
            2591275.8,
            1106117.2
          ],
          [
            2591262.8,
            1106112.2
          ],
          [
            2591248.8,
            1106111.4
          ],
          [
            2591243.0,
            1106109.5
          ],
          [
            2591221.1,
            1106094.3
          ],
          [
            2591211.1,
            1106089.1
          ],
          [
            2591208.6,
            1106083.4
          ],
          [
            2591211.1,
            1106080.1
          ],
          [
            2591217.4,
            1106077.0
          ],
          [
            2591243.4,
            1106072.6
          ],
          [
            2591253.0,
            1106068.7
          ],
          [
            2591262.1,
            1106049.4
          ],
          [
            2591272.1,
            1106039.9
          ],
          [
            2591353.6,
            1105997.4
          ],
          [
            2591370.6,
            1105975.8
          ],
          [
            2591398.5,
            1105956.8
          ],
          [
            2591428.1,
            1105930.0
          ],
          [
            2591449.8,
            1105920.8
          ],
          [
            2591477.3,
            1105913.1
          ],
          [
            2591483.1,
            1105909.2
          ],
          [
            2591490.7,
            1105900.6
          ],
          [
            2591558.1,
            1105858.1
          ],
          [
            2591570.0,
            1105846.6
          ],
          [
            2591588.8,
            1105834.8
          ],
          [
            2591595.3,
            1105824.5
          ],
          [
            2591601.3,
            1105819.0
          ],
          [
            2591628.6,
            1105801.4
          ],
          [
            2591637.4,
            1105791.4
          ],
          [
            2591647.1,
            1105773.0
          ],
          [
            2591670.5,
            1105757.2
          ],
          [
            2591681.9,
            1105746.4
          ],
          [
            2591690.8,
            1105730.2
          ],
          [
            2591694.9,
            1105721.7
          ],
          [
            2591695.3,
            1105715.1
          ],
          [
            2591693.4,
            1105709.8
          ],
          [
            2591688.3,
            1105707.9
          ],
          [
            2591674.5,
            1105715.5
          ],
          [
            2591655.6,
            1105716.8
          ],
          [
            2591644.2,
            1105713.9
          ],
          [
            2591636.6,
            1105709.3
          ],
          [
            2591615.8,
            1105709.1
          ],
          [
            2591559.7,
            1105697.6
          ],
          [
            2591555.2,
            1105692.2
          ],
          [
            2591560.6,
            1105684.4
          ],
          [
            2591578.3,
            1105676.6
          ],
          [
            2591583.2,
            1105671.6
          ],
          [
            2591579.7,
            1105665.2
          ],
          [
            2591570.1,
            1105660.0
          ],
          [
            2591563.2,
            1105656.2
          ],
          [
            2591516.0,
            1105644.4
          ],
          [
            2591502.5,
            1105644.6
          ],
          [
            2591468.5,
            1105634.7
          ],
          [
            2591460.9,
            1105634.6
          ],
          [
            2591447.0,
            1105636.0
          ],
          [
            2591433.6,
            1105642.6
          ],
          [
            2591416.1,
            1105660.9
          ],
          [
            2591378.6,
            1105682.2
          ],
          [
            2591327.7,
            1105718.2
          ],
          [
            2591322.1,
            1105725.4
          ],
          [
            2591306.7,
            1105735.5
          ],
          [
            2591277.6,
            1105751.0
          ],
          [
            2591269.4,
            1105758.8
          ],
          [
            2591261.6,
            1105771.0
          ],
          [
            2591248.2,
            1105809.1
          ],
          [
            2591211.0,
            1105849.3
          ],
          [
            2591186.3,
            1105860.0
          ],
          [
            2591143.1,
            1105884.5
          ],
          [
            2591098.3,
            1105914.2
          ],
          [
            2591033.1,
            1105945.3
          ],
          [
            2591023.6,
            1105953.9
          ],
          [
            2591012.2,
            1105973.3
          ],
          [
            2591000.5,
            1105983.6
          ],
          [
            2590987.3,
            1105992.1
          ],
          [
            2590946.9,
            1106012.3
          ],
          [
            2590938.5,
            1106020.7
          ],
          [
            2590916.8,
            1106031.2
          ],
          [
            2590878.6,
            1106059.1
          ],
          [
            2590869.0,
            1106069.3
          ],
          [
            2590857.3,
            1106089.1
          ],
          [
            2590817.4,
            1106170.6
          ],
          [
            2590814.4,
            1106178.5
          ],
          [
            2590791.3,
            1106247.0
          ],
          [
            2590764.9,
            1106335.4
          ],
          [
            2590752.8,
            1106359.9
          ],
          [
            2590747.4,
            1106378.9
          ],
          [
            2590743.7,
            1106398.7
          ],
          [
            2590739.2,
            1106516.5
          ],
          [
            2590734.3,
            1106546.0
          ],
          [
            2590723.5,
            1106571.1
          ],
          [
            2590722.7,
            1106594.4
          ],
          [
            2590726.2,
            1106605.7
          ],
          [
            2590741.3,
            1106627.4
          ],
          [
            2590760.0,
            1106642.2
          ],
          [
            2590764.3,
            1106651.5
          ],
          [
            2590768.1,
            1106655.8
          ],
          [
            2590779.0,
            1106660.8
          ],
          [
            2590792.6,
            1106670.2
          ],
          [
            2590799.3,
            1106681.0
          ],
          [
            2590800.1,
            1106689.9
          ]
        ],
        [
          [
            2591541.2,
            1105699.3
          ],
          [
            2591546.1,
            1105699.9
          ],
          [
            2591553.0,
            1105706.8
          ],
          [
            2591553.0,
            1105709.4
          ],
          [
            2591549.0,
            1105711.9
          ],
          [
            2591519.5,
            1105712.1
          ],
          [
            2591513.0,
            1105710.0
          ],
          [
            2591512.1,
            1105706.9
          ],
          [
            2591513.6,
            1105704.5
          ],
          [
            2591518.4,
            1105702.1
          ],
          [
            2591541.2,
            1105699.3
          ]
        ]
      ]
    ]
  },
  "properties": {
    "name": "Lac de Cleuson",
    "gewaesserkennzahl": 9777,
    "seetyp": 2,
    "natur_mit": 0,
    "ausgleichsbecken": 0,
    "reguliert": 0,
    "seeflaeche_km2": 0.5,
    "inhalt_see_mio_m3": 20.02,
    "nutzinhalt_mio_m3": 20.0,
    "tiefe_see_m": 76,
    "hoehenlage_muem": 2186,
    "uferlaenge_m": 3692,
    "gwlnr": "CH0097770000",
    "label": "Lac de Cleuson"
  }
}